STARLINK-31937          
1 59871U 24098P   26068.54000939 -.00001260  00000+0 -36279-4 0  9996
2 59871  43.0016 271.8857 0000963 267.4431  92.6310 15.27569362101907
FLOCK 4G-8              
1 62613U 25009E   26068.72381419  .00013559  00000+0  50438-3 0  9996
2 62613  97.4045 151.2834 0003050 315.2538  44.8455 15.27623414 63721
